TIANMU-1 08             
1 57400U 23101B   26066.00237819  .00000346  00000+0  14775-4 0  9993
2 57400  97.2717 118.7901 0006380 134.2174 225.9592 15.29204229146020
STARLINK-33701          
1 63464U 25070E   26068.56958570  .00034061  00000+0  12408-2 0  9994
2 63464  43.0001 260.8607 0001173 224.1613 135.9145 15.27601059 52958
